KUIPER-00074            
1 64821U 25151F   25243.53586233  .00051140  00000+0  14228-2 0  9995
2 64821  51.8785  64.4718 0004769 331.1627  28.9095 15.36319694  7104
KUIPER-00075            
1 64822U 25151G   25242.80789802  .00064437  00000+0  17440-2 0  9994
2 64822  51.8784  67.8548 0004637 303.2726  56.7816 15.37073471  6993
KUIPER-00076            
1 64823U 25151H   25242.82388565  .00031034  00000+0  87601-3 0  9992
2 64823  51.8784  67.9480 0005775 308.6865  51.3605 15.36098247  6991
KUIPER-00077            
1 64824U 25151J   25243.58335648  .00022880  00000+0  94352-3 0  9991
2 64824  51.8847  64.8638 0006400 306.2291  34.6557 15.23951538  5598
KUIPER-00078            
1 64825U 25151K   25243.58335648 -.00473017  00000+0 -17154-1 0  9999
2 64825  51.8815  64.4567 0006055 330.9943 197.0922 15.29834490  5138
KUIPER-00079            
1 64826U 25151L   25243.58335648  .00012042  00000+0  61241-3 0  9993
2 64826  51.8880  65.5692 0007976 316.1695 347.4788 15.17205306  4321
KUIPER-00080            
1 64827U 25151M   25243.58335648 -.00997865  00000+0 -50549-1 0  9998
2 64827  51.8894  65.5686 0002948 342.5169  19.7862 15.19389168  5136
KUIPER-00082            
1 64828U 25151N   25242.81313405  .00042058  00000+0  11679-2 0  9996
2 64828  51.8784  67.8810 0005678 299.9282  60.1140 15.36463341  6992
KUIPER-00083            
1 64829U 25151P   25243.58335648  .00009567  00000+0  35191-3 0  9999
2 64829  51.8822  64.4526 0007148 309.4524 198.0333 15.28515951  5566
KUIPER-00084            
1 64830U 25151Q   25243.58335648 -.00003201  00000+0 -20544-3 0  9998
2 64830  51.8928  67.9892 0008939 306.3840 229.3840 15.04615096  5099
KUIPER-00085            
1 64831U 25151R   25242.80869327  .00050284  00000+0  13837-2 0  9996
2 64831  51.8786  67.8543 0006597 300.4447  59.5887 15.36660132  6990
KUIPER-00086            
1 64832U 25151S   25243.58335648 -.00037125  00000+0 -15425-2 0  9993
2 64832  51.8814  64.9216 0009503 310.6867 319.9443 15.23141609  5862
KUIPER-00087            
1 64833U 25151T   25242.81613054  .00053037  00000+0  14694-2 0  9994
2 64833  51.8784  67.9050 0005650 302.1911  57.8527 15.36428905  6990
KUIPER-00089            
1 64834U 25151U   25243.47480509  .00048920  00000+0  13675-2 0  9998
2 64834  51.8787  64.8220 0006243 328.2123  31.8486 15.36184402  7091
KUIPER-00090            
1 64835U 25151V   25243.22160534  .00064901  00000+0  18233-2 0  9997
2 64835  51.8792  66.1183 0006214 329.0986  30.9634 15.35902681  7052
KUIPER-00091            
1 64836U 25151W   25242.81309801  .00051313  00000+0  14281-2 0  9996
2 64836  51.8785  67.8800 0006069 302.4268  57.6131 15.36300402  6999
KUIPER-00092            
1 64837U 25151X   25243.53154188  .00053137  00000+0  14689-2 0  9991
2 64837  51.8778  64.4437 0005505 316.4513  43.6038 15.36500413  8316
KUIPER-00093            
1 64838U 25151Y   25243.58335648 -.00385118  00000+0 -11932-1 0  9995
2 64838  51.8795  64.2885 0005049 321.1935 280.9248 15.34471803  5252
KUIPER-00094            
1 64839U 25151Z   25243.20614845  .00052929  00000+0  14643-2 0  9996
2 64839  51.8777  66.0138 0005914 312.6819  47.3668 15.36473506  7056
KUIPER-00081            
1 65132U 25171A   25243.56278129  .00052051  00000+0  14622-2 0  9998
2 65132  51.8772 308.0122 0005008 191.6095 168.4777 15.36008802  4332
KUIPER-00088            
1 65133U 25171B   25243.56350176  .00024018  00000+0  68322-3 0  9991
2 65133  51.8777 308.0187 0004731 190.6643 169.4244 15.36002405  4332
KUIPER-00095            
1 65134U 25171C   25243.58335648  .00074803  00000+0  21397-2 0  9998
2 65134  51.8776 308.0058 0004464 220.1973 207.8722 15.35282818  2138
KUIPER-00096            
1 65135U 25171D   25243.56805188  .00022250  00000+0  64194-3 0  9990
2 65135  51.8772 308.0423 0004320 211.1797 148.8933 15.35606920  4332
KUIPER-00097            
1 65136U 25171E   25243.57193661  .00030983  00000+0  89716-3 0  9997
2 65136  51.8774 308.0692 0004563 227.2781 132.7821 15.35304667  4323
KUIPER-00098            
1 65137U 25171F   25243.56270911  .00040115  00000+0  11326-2 0  9990
2 65137  51.8773 308.0116 0005213 193.6740 166.4106 15.35968128  3673
KUIPER-00099            
1 65138U 25171G   25243.56477526  .00055814  00000+0  15738-2 0  9995
2 65138  51.8777 308.0272 0004862 198.2897 161.7915 15.35862565  4321
KUIPER-00100            
1 65139U 25171H   25243.56706359  .00029224  00000+0  83715-3 0  9992
2 65139  51.8771 308.0356 0004779 205.7944 154.2804 15.35673194  4325
KUIPER-00102            
1 65140U 25171J   25243.57102767  .00044205  00000+0  12706-2 0  9995
2 65140  51.8770 308.0609 0004229 221.5600 138.5065 15.35368898  4328
KUIPER-00103            
1 65141U 25171K   25243.56876929  .00023477  00000+0  67707-3 0  9993
2 65141  51.8769 308.0465 0004211 211.8035 148.2697 15.35586951  4323
KUIPER-00104            
1 65142U 25171L   25243.56780022  .00039571  00000+0  11310-2 0  9992
2 65142  51.8785 308.0485 0004061 211.5261 148.5482 15.35597248  4321
KUIPER-00105            
1 65143U 25171M   25243.56168334  .00025129  00000+0  71120-3 0  9999
2 65143  51.8772 308.0050 0005356 187.8338 172.2566 15.36132377  4331
KUIPER-00106            
1 65144U 25171N   25243.56598998  .00022626  00000+0  64847-3 0  9990
2 65144  51.8772 308.0288 0004747 200.1690 159.9109 15.35802720  4338
KUIPER-00107            
1 65145U 25171P   25243.56661817  .00019517  00000+0  56279-3 0  9997
2 65145  51.8782 308.0404 0004893 203.4677 156.6087 15.35707240  4333
KUIPER-00108            
1 65146U 25171Q   25243.57133061  .00035489  00000+0  10263-2 0  9992
2 65146  51.8786 308.0718 0005016 223.8953 136.1635 15.35277226  4335
KUIPER-00109            
1 65147U 25171R   25243.56431242  .00032207  00000+0  91628-3 0  9994
2 65147  51.8773 308.0203 0004902 198.5298 161.5510 15.35837124  4326
KUIPER-00110            
1 65148U 25171S   25243.56548269  .00023278  00000+0  66583-3 0  9993
2 65148  51.8780 308.0324 0004750 197.6265 162.4557 15.35848437  4324
KUIPER-00111            
1 65149U 25171T   25243.56898515  .00030651  00000+0  88011-3 0  9999
2 65149  51.8785 308.0558 0004033 217.1552 142.9155 15.35576620  4329
KUIPER-00112            
1 65150U 25171U   25243.57243964  .00044769  00000+0  12899-2 0  9999
2 65150  51.8782 308.0765 0005073 232.1804 127.8723 15.35284468  4329
KUIPER-00114            
1 65151U 25171V   25243.57097011  .00037256  00000+0  10736-2 0  9991
2 65151  51.8778 308.0645 0004377 221.0718 138.9939 15.35366812  4325
KUIPER-00115            
1 65152U 25171W   25243.56551671  .00022664  00000+0  65044-3 0  9998
2 65152  51.8773 308.0264 0004831 197.0310 163.0515 15.35760015  4325
KUIPER-00116            
1 65153U 25171X   25243.56901083  .00023036  00000+0  66755-3 0  9999
2 65153  51.8785 308.0559 0004252 216.0103 144.0597 15.35447422  4328
KUIPER-00118            
1 65154U 25171Y   25243.57136066  .00023664  00000+0  68757-3 0  9993
2 65154  51.8781 308.0686 0004084 221.3993 138.6684 15.35347813  4324
KUIPER-00119            
1 65155U 25171Z   25243.56294537  .00022859  00000+0  65067-3 0  9997
2 65155  51.8774 308.0112 0005176 196.0830 163.9993 15.36010756  4320
